NORAD_CAT_ID,OBJECT_NAME,OBJECT_TYPE,EPOCH,MEAN_MOTION,ECCENTRICITY,INCLINATION,RA_OF_ASC_NODE,ARG_OF_PERICENTER,MEAN_ANOMALY,BSTAR,MEAN_MOTION_DOT,MEAN_MOTION_DDOT,TLE_LINE0,TLE_LINE1,TLE_LINE2,SEMIMAJOR_AXIS,PERIOD,APOGEE,PERIGEE,DECAYED
50207.0,STARLINK-3262,PAYLOAD,2022-10-16 14:09:48,15.08818803,0.0002375,53.217,46.1592,35.2487,324.8662,-0.0004974,-8.191e-05,0.0,0 STARLINK-3262,1 50207U 21125BD  22289.59014094 -.00008191  00000-0 -49740-3 0  9998,2 50207  53.2170  46.1592 0002375  35.2487 324.8662 15.08818803 47517,6917.945,95.439,541.453,538.1669999999998,0.0
50207.0,STARLINK-3262,PAYLOAD,2022-10-17 02:52:52,15.08839777,0.0002173,53.2174,43.7797,36.1994,323.9145,0.0001163,1.563e-05,0.0,0 STARLINK-3262,1 50207U 21125BD  22290.12005455  .00001563  00000-0  11630-3 0  9991,2 50207  53.2174  43.7797 0002173  36.1994 323.9145 15.08839777 47597,6917.880999999999,95.438,541.249,538.243,0.0
50207.0,STARLINK-3262,PAYLOAD,2022-10-17 14:00:35,15.08840508,0.000241,53.2172,41.699,34.9266,325.1884,0.00035229,5.323e-05,0.0,0 STARLINK-3262,1 50207U 21125BD  22290.58373861  .00005323  00000-0  35229-3 0  9998,2 50207  53.2172  41.6990 0002410  34.9266 325.1884 15.08840508 47665,6917.879,95.438,541.411,538.077,0.0
50207.0,STARLINK-3262,PAYLOAD,2022-10-18 05:54:26,15.08843253,0.0002488,53.2173,38.7256,34.1264,325.9888,0.00040558,6.173e-05,0.0,0 STARLINK-3262,1 50207U 21125BD  22291.24614119  .00006173  00000-0  40558-3 0  9991,2 50207  53.2173  38.7256 0002488  34.1264 325.9888 15.08843253 47766,6917.87,95.437,541.457,538.014,0.0
50207.0,STARLINK-3262,PAYLOAD,2022-10-18 10:40:35,15.08845562,0.0002563,53.2174,37.8335,34.1387,325.9770000000001,0.00031278,4.694e-05,0.0,0 STARLINK-3262,1 50207U 21125BD  22291.44486061  .00004694  00000-0  31278-3 0  9991,2 50207  53.2174  37.8335 0002563  34.1387 325.9770 15.08845562 47793,6917.863,95.437,541.501,537.955,0.0
50207.0,STARLINK-3262,PAYLOAD,2022-10-19 13:42:09,15.08840215,0.0002591,53.2172,32.778,36.5426,323.5743,9.8535e-05,1.28e-05,0.0,0 STARLINK-3262,1 50207U 21125BD  22292.57094301  .00001280  00000-0  98535-4 0  9996,2 50207  53.2172  32.7780 0002591  36.5426 323.5743 15.08840215 47963,6917.88,95.438,541.5369999999998,537.952,0.0
50207.0,STARLINK-3262,PAYLOAD,2022-10-20 13:32:56,15.08844109,0.0002485999999999,53.2166,28.3176,30.3704,329.7431,0.00011058,1.472e-05,0.0,0 STARLINK-3262,1 50207U 21125BD  22293.56453950  .00001472  00000-0  11058-3 0  9992,2 50207  53.2166  28.3176 0002486  30.3704 329.7431 15.08844109 48116,6917.868,95.437,541.453,538.013,0.0
50207.0,STARLINK-3262,PAYLOAD,2022-10-21 05:26:48,15.08836452,0.0002504999999999,53.2168,25.3452,28.5565,331.5564,7.1883e-05,8.56e-06,0.0,0 STARLINK-3262,1 50207U 21125BD  22294.22694519  .00000856  00000-0  71883-4 0  9992,2 50207  53.2168  25.3452 0002505  28.5565 331.5564 15.08836452 48219,6917.891,95.438,541.489,538.023,0.0
50207.0,STARLINK-3262,PAYLOAD,2022-10-21 13:23:43,15.08849372,0.0002338,53.2167,23.8583,29.6417,330.4708,1.3489e-05,-7.4e-07,0.0,0 STARLINK-3262,1 50207U 21125BD  22294.55813755 -.00000074  00000-0  13489-4 0  9994,2 50207  53.2167  23.8583 0002338  29.6417 330.4708 15.08849372 48266,6917.852,95.437,541.3340000000002,538.099,0.0
50207.0,STARLINK-3262,PAYLOAD,2022-10-22 03:42:11,15.08840576,0.0002591,53.2165,21.182,27.9559,332.1572,9.2037e-05,1.177e-05,0.0,0 STARLINK-3262,1 50207U 21125BD  22295.15429860  .00001177  00000-0  92037-4 0  9991,2 50207  53.2165  21.1820 0002591  27.9559 332.1572 15.08840576 48353,6917.879,95.438,541.536,537.951,0.0
50207.0,STARLINK-3262,PAYLOAD,2022-10-22 13:14:31,15.08830399,0.0002656,53.2165,19.398,26.7328,333.38,-1.4403e-05,-5.18e-06,0.0,0 STARLINK-3262,1 50207U 21125BD  22295.55174987 -.00000518  00000-0 -14403-4 0  9993,2 50207  53.2165  19.3980 0002656  26.7328 333.3800 15.08830399 48418,6917.91,95.438,541.612,537.937,0.0
50207.0,STARLINK-3262,PAYLOAD,2022-10-22 14:49:54,15.08831353,0.0002689,53.2165,19.1007,26.6773,333.4357,-4.5856e-06,-3.61e-06,0.0,0 STARLINK-3262,1 50207U 21125BD  22295.61798957 -.00000361  00000-0 -45856-5 0  9992,2 50207  53.2165  19.1007 0002689  26.6773 333.4357 15.08831353 48425,6917.906999999997,95.438,541.632,537.9119999999998,0.0
50207.0,STARLINK-3262,PAYLOAD,2022-10-23 05:08:21,15.088483800000002,0.0002566,53.216,16.4234,29.2306,330.8829,0.00022944,3.366e-05,0.0,0 STARLINK-3262,1 50207U 21125BD  22296.21413697  .00003366  00000-0  22944-3 0  9991,2 50207  53.2160  16.4234 0002566  29.2306 330.8829 15.08848380 48510,6917.855,95.437,541.495,537.945,0.0
50207.0,STARLINK-3262,PAYLOAD,2022-10-23 11:29:53,15.08860081,0.000261,53.2158,15.2343,29.6945,330.4195,0.00044906,6.87e-05,0.0,0 STARLINK-3262,1 50207U 21125BD  22296.47909194  .00006870  00000-0  44906-3 0  9996,2 50207  53.2158  15.2343 0002610  29.6945 330.4195 15.08860081 48556,6917.819,95.436,541.49,537.878,0.0
50207.0,STARLINK-3262,PAYLOAD,2022-10-23 13:05:16,15.08862599,0.0002625,53.2157,14.937,29.4376,330.6764,0.00059892,9.263e-05,0.0,0 STARLINK-3262,1 50207U 21125BD  22296.54533197  .00009263  00000-0  59892-3 0  9999,2 50207  53.2157  14.9370 0002625  29.4376 330.6764 15.08862599 48564,6917.811,95.436,541.492,537.86,0.0
50207.0,STARLINK-3262,PAYLOAD,2022-10-24 04:59:07,15.08857935,0.0002935,53.2148,11.9667,29.003,331.1125,0.00036235,5.486e-05,0.0,0 STARLINK-3262,1 50207U 21125BD  22297.20772984  .00005486  00000-0  36235-3 0  9991,2 50207  53.2148  11.9667 0002935  29.0030 331.1125 15.08857935 48663,6917.826,95.436,541.721,537.66,0.0
50207.0,STARLINK-3262,PAYLOAD,2022-10-24 11:20:40,15.08837825,0.0002666,53.2162,10.7749,23.0393,337.0718,-0.00023829,-4.079e-05,0.0,0 STARLINK-3262,1 50207U 21125BD  22297.47269276 -.00004079  00000-0 -23829-3 0  9999,2 50207  53.2162  10.7749 0002666  23.0393 337.0718 15.08837825 48708,6917.887,95.438,541.596,537.908,0.0
50207.0,STARLINK-3262,PAYLOAD,2022-10-24 14:31:27,15.08829206,0.0002476,53.2169,10.1791,21.3238,338.7857,-0.00025296,-4.311e-05,0.0,0 STARLINK-3262,1 50207U 21125BD  22297.60517818 -.00004311  00000-0 -25296-3 0  9991,2 50207  53.2169  10.1791 0002476  21.3238 338.7857 15.08829206 48722,6917.913000000001,95.438,541.491,538.066,0.0
50207.0,STARLINK-3262,PAYLOAD,2022-10-25 11:11:29,15.08824791,0.0002728,53.2156,6.3135,27.2955,332.8180000000001,-8.8987e-06,-4.3e-06,0.0,0 STARLINK-3262,1 50207U 21125BD  22298.46631088 -.00000430  00000-0 -88987-5 0  9998,2 50207  53.2156   6.3135 0002728  27.2955 332.8180 15.08824791 48850,6917.927,95.439,541.679,537.905,0.0
50207.0,STARLINK-3262,PAYLOAD,2022-10-26 04:40:44,15.08837407,0.0002816999999999,53.216,3.043,27.3504,332.7636,0.00070614,0.00010967,0.0,0 STARLINK-3262,1 50207U 21125BD  22299.19495795  .00010967  00000-0  70614-3 0  9992,2 50207  53.2160   3.0430 0002817  27.3504 332.7636 15.08837407 48962,6917.888000000001,95.438,541.702,537.805,0.0
50207.0,STARLINK-3262,PAYLOAD,2022-10-26 11:02:16,15.08848058,0.0002821,53.216,1.853,28.4583,331.6562,0.00081015,0.00012632,0.0,0 STARLINK-3262,1 50207U 21125BD  22299.45991657  .00012632  00000-0  81015-3 0  9997,2 50207  53.2160   1.8530 0002821  28.4583 331.6562 15.08848058 49009,6917.856,95.437,541.672,537.769,0.0
50207.0,STARLINK-3262,PAYLOAD,2022-10-26 14:13:02,15.08850892,0.0002819,53.2157,1.2579,28.7211,331.3936,0.00077443,0.00012062,0.0,0 STARLINK-3262,1 50207U 21125BD  22299.59239573  .00012062  00000-0  77443-3 0  9991,2 50207  53.2157   1.2579 0002819  28.7211 331.3936 15.08850892 49023,6917.847,95.437,541.6619999999998,537.762,0.0
50207.0,STARLINK-3262,PAYLOAD,2022-10-27 09:17:39,15.08855274,0.0002863999999999,53.2159,357.6902,28.5988,331.5161,0.00033604,5.066e-05,0.0,0 STARLINK-3262,1 50207U 21125BD  22300.38726837  .00005066  00000-0  33604-3 0  9992,2 50207  53.2159 357.6902 0002864  28.5988 331.5161 15.08855274 49146,6917.834,95.437,541.68,537.717,0.0
50207.0,STARLINK-3262,PAYLOAD,2022-10-28 09:08:26,15.08856941,0.0002923,53.2154,353.2297,29.6605,330.4553,0.00016445,2.331e-05,0.0,0 STARLINK-3262,1 50207U 21125BD  22301.38085851  .00002331  00000-0  16445-3 0  9993,2 50207  53.2154 353.2297 0002923  29.6605 330.4553 15.08856941 49295,6917.829000000002,95.436,541.716,537.672,0.0
50207.0,STARLINK-3262,PAYLOAD,2022-10-29 07:23:50,15.08842225,0.0002923,53.2154,349.0659,27.2531,332.8614,-3.7009e-05,-8.78e-06,0.0,0 STARLINK-3262,1 50207U 21125BD  22302.30821920 -.00000878  00000-0 -37009-4 0  9997,2 50207  53.2154 349.0659 0002923  27.2531 332.8614 15.08842225 49432,6917.874,95.437,541.761,537.716,0.0
50207.0,STARLINK-3262,PAYLOAD,2022-10-29 08:59:13,15.08841067,0.0002658999999999,53.2162,348.76800000000014,30.3468,329.7677,1.8456e-05,5e-08,0.0,0 STARLINK-3262,1 50207U 21125BD  22302.37446333  .00000005  00000-0  18456-4 0  9990,2 50207  53.2162 348.7680 0002659  30.3468 329.7677 15.08841067 49449,6917.877,95.437,541.582,537.903,0.0
50207.0,STARLINK-3262,PAYLOAD,2022-10-29 20:06:55,15.08840922,0.0002827,53.2166,346.6852,29.6387,330.4765,-1.2211e-05,-4.83e-06,0.0,0 STARLINK-3262,1 50207U 21125BD  22302.83814396 -.00000483  00000-0 -12211-4 0  9994,2 50207  53.2166 346.6852 0002827  29.6387 330.4765 15.08840922 49513,6917.878000000002,95.437,541.698,537.7869999999998,0.0
50207.0,STARLINK-3262,PAYLOAD,2022-10-30 10:25:24,15.08831469,0.000226,53.2165,344.01,37.093,323.0218,-0.00010516,-1.961e-05,0.0,0 STARLINK-3262,1 50207U 21125BD  22303.43431189 -.00001961  00000-0 -10516-3 0  9993,2 50207  53.2165 344.0100 0002260  37.0930 323.0218 15.08831469 49605,6917.906,95.438,541.335,538.2080000000002,0.0
50207.0,STARLINK-3262,PAYLOAD,2022-10-30 19:57:43,15.08833133,0.0002605,53.2167,342.2258,27.8022,332.3109,-4.1728e-05,-9.52e-06,0.0,0 STARLINK-3262,1 50207U 21125BD  22303.83175122 -.00000952  00000-0 -41728-4 0  9998,2 50207  53.2167 342.2258 0002605  27.8022 332.3109 15.08833133 49661,6917.901,95.438,541.568,537.964,0.0
